#dP2022  2 21  0  0  0.00000000      96 __u+U ITR00 EXT  IAC
## 2198  86400.00000000   900.00000000 59631 0.0000000000000
+  116   C06C07C08C09C10C11C12C13C14C16C19C20C21C22C23C24C25
+        C26C27C28C29C30C32C33C34C35C36C37C38C39C40C41C42C43
+        C44C45C46E01E02E03E04E05E07E09E10E11E12E13E14E15E18
+        E21E24E25E26E27E30E31E33E34E36G01G02G03G04G05G06G07
+        G08G09G10G11G12G13G14G15G16G17G18G19G20G21G22G23G24
+        G25G26G27G28G29G30G31G32J01J02J03R01R02R03R04R05R07
+        R08R09R11R12R13R14R15R17R18R19R20R21R22R24  0  0  0
++        10  8 10 10  9  9  8  9  9 10  9  8 10  8  8  7  8
++         8  9  9 10  8  9  9  9  7  9  8  9  9  8  9  8 11
++         8  7 10  6  7 10  8  8 10 10  8  9  8  8  7  7  9
++         9  8  9  7  8  8  8  9  7  8  7  9  8  8  9  6  7
++         8  8  7  7  8  9  6  9  8  8  8  7  7  7  8  8  7
++         7  7  8  6  7  8  8  8 11  7  9  9  8  7  9  8  8
++         8  9  8  0  9  8  9  7  7  9  8  7  8  8  0  0  0
%c M  cc GPS ccc cccc cccc cccc cccc ccccc ccccc ccccc ccccc
%c cc cc ccc ccc cccc cccc cccc cccc ccccc ccccc ccccc ccccc
%f  0.0000000  0.000000000  0.00000000000  0.000000000000000
%f  0.0000000  0.000000000  0.00000000000  0.000000000000000
%i    0    0    0    0      0      0      0      0         0
%i    0    0    0    0      0      0      0      0         0
/* IAC                                ULTRA-RAPID PREDICTION
/* S/V CLOCKS ARE ALIGNED TO GNSS TIME                      
/* G:C1WC2W R:C1PC2P E:C1XC5X C:C2IC6I J:C1CC2S             
/* PCV:IGS14_2196 OL/AL:FES2004  NONE     YN ORB:CoN CLK:CoN
*  2022 02 21  4 45  0.00000000
PC06 -18812.548898  34370.068812  15286.818893     87.302554
PC07  -3926.132261  36713.155170  20470.723472    -79.459700
PC08  -8481.288347  19516.685450 -36385.163595    148.979709
PC09 -10448.369380  32940.094468  24158.505004   -541.447249
PC10   2238.309580  39623.348306  15146.536002    139.695033
PC11 -22544.886047  12823.373784  10397.896108   -195.308951
PC12 -16854.647111  -3497.051234  22004.712387    681.082392
PC13    261.269823  22723.348467 -35366.772519   -110.503792
PC14 -14762.900809   5913.419343 -22908.577944    453.739559
PC16 -19238.457863  34369.061800  14832.220887     87.081790
PC19   9968.017963 -16027.066557  20578.186209    894.503704
PC20  16805.051765   3280.406132  22057.824888   -828.008840
PC21 -13919.001178 -21841.415286 -10346.516912   -940.363929
PC22  -2881.242324 -26825.407083   7086.382474   -958.272951
PC23    832.153655  16724.513990  22318.754084   -955.967638
PC24 -27393.170961  -4338.323973   3221.933394   -944.195853
PC25 -18068.663207   9865.329081  18840.354393   -776.347024
PC26 -20863.181395 -13745.993317 -12484.925989    776.166746
PC27  10469.265913  11972.847141 -22947.454022    680.722740
PC28  -6581.501743  22170.318418 -15613.578102     35.175239
PC29  19309.290238 -20118.273479  -1184.616363    517.995137
PC30  21152.899355  -5381.477574 -17408.042035    493.763328
PC32  14102.244963  21760.462620  10340.819399   -968.135233
PC33  -9914.833317  16047.330164 -20561.173734   -958.911596
PC34 -21414.678953   6201.541784  16757.769215   -464.309229
PC35   6480.356683 -22633.152398  15007.333422    149.410309
PC36  18686.052277  -9153.478453 -18574.701537   -912.506531
PC37  19629.376949  14635.514815  13371.800120   -957.381294
PC38 -15939.037585  19589.336432 -33744.919464    212.905516
PC39 -22676.465785  34628.473495   7522.878425     34.794415
PC40  -6990.127662  33976.054902  24051.756455    246.203533
PC41   2717.766604  26751.083249  -7405.499106   -941.193767
PC42 -16952.379441  -4327.503094 -21690.405656   -932.410478
PC43 -19658.619725  19702.194049   1803.404737   -940.452194
PC44 -10758.657597 -11903.664400  22824.606028    571.697866
PC45  -1181.754717 -16657.243163 -22366.724324    686.062765
PC46  27298.998864   3336.880976  -4599.675891   -179.825806
PE01  10109.234634 -13273.313665 -24454.011517   -583.138192
PE02  -9998.232234  13362.020756  24439.202773    281.630679
PE03 -12896.646863  24588.893489 -10274.050189   -529.952310
PE04    608.035584 -28507.546443  -7945.457571   -969.211909
PE05 -17842.107342   6127.716671 -22807.239206   -207.067026
PE07  12340.387989  15638.567617  21900.490356   -641.149970
PE09 -12386.796828 -15325.815115 -22081.674071   5353.004058
PE10 -10040.559388 -13342.508612  24438.855479   -496.539576
PE11 -20013.246380  -7552.963223  20448.069190   4403.334907
PE12   1067.335475 -16926.351687  24267.451588   4748.942695
PE13  19486.363027   7849.598542 -20848.563038    426.710938
PE14  -8000.087885 -14987.607901  16134.279348  -1753.172051
PE15  -1185.916167  16877.101181 -24275.994682    762.039644
PE18  11496.984904  20163.233731 -22768.909886  -1767.754177
PE21  22517.054243   3254.480636 -18934.820049   -718.397027
PE24 -22121.307975 -19669.409528    969.723790  -1402.124674
PE25 -22627.536492  -3513.515575  18764.938486   -564.346056
PE26  28623.763007  -6275.169705  -4185.013674   -829.983450
PE27  22688.193957  18866.222648  -2218.374430   -237.093873
PE30   8409.469698  23127.959176  16418.265497   -291.139014
PE31  -9521.378296 -23251.771334 -15656.327625   -492.494000
PE33  21074.567300 -15921.434743  13384.881651   -459.234348
PE34 -20881.259458  16018.448305 -13550.200187   -502.945356
PE36 -28566.282031   5711.613500   5216.229629   -335.285933
PG01   6146.812315  13834.435103 -22137.420250    426.271048
PG02  16189.167272 -15104.848801  15426.519562   -651.227394
PG03  11812.575220  22565.099053  -7829.073412   -130.998448
PG04   1828.046234  22176.829293  14444.453921   -188.289537
PG05   1537.510259 -18225.988791  19043.648764    -72.165823
PG06  25966.221030  -5531.730404   1750.983741    208.176270
PG07  21390.882655   7153.175600  14788.994901    311.745061
PG08  -5244.809278  25394.010521  -4837.419158    -57.005596
PG09  10683.327732  13176.068701  20359.885792   -353.247773
PG10 -19957.325917  -6565.909538 -16281.292156   -326.306874
PG11  18252.227152 -12440.464467  14739.783615    -82.301183
PG12  -7864.363619 -23294.967637 -10481.332432   -174.173785
PG13  13137.506314 -22938.747299   1246.993306    265.141207
PG14  19957.079847   7526.346806 -15876.415929    -86.307769
PG15   1630.599965 -25798.613548  -5717.504381    -82.229392
PG16  -6808.196979  14909.049116  20525.460216   -472.092819
PG17  16220.323557  -2850.174544 -20418.390867    577.849089
PG18 -21244.396746  -6811.357299  14486.572550    235.677088
PG19  17815.622840 -10123.303510 -17056.241975    121.689307
PG20   9910.242330 -12097.401521  21471.151433    516.610889
PG21  -4716.306606  15715.343144 -20070.619716    158.372355
PG22 -17320.395023  13732.119749 -14189.846359    216.726760
PG23 -20338.783310 -15545.219821  -7275.140853     -0.580252
PG24  -2079.248050 -15849.123799 -21484.904434    273.352935
PG25 -17453.660171 -20210.427961    512.021857    288.475733
PG26 -16049.159917   4854.146255  20575.680626    184.988908
PG27 -12423.272676  22468.440446   5730.100779    127.778791
PG28  16609.004828   -223.991367 -20151.575094    395.935726
PG29  -7409.029046 -15827.264124  19938.667578   -482.786430
PG30  25779.632745   1188.008988   6870.620067   -514.639468
PG31 -25672.775398   6592.244464   3931.495309   -165.693227
PG32 -16837.432901   7510.158038 -18921.116871    -71.471237
PJ01 -21575.348508  28040.720289 -18348.278938    236.529881
PJ02 -26740.002832  20789.876468  30081.957779     -1.485252
PJ03 -34852.764295  23744.654816   2803.757408     -0.626135
PR01   6259.965028 -17477.280592  17491.226604      7.092589
PR02  -2709.132103 -25391.604259   -561.622090    510.291511
PR03  -9615.800847 -16889.441170 -16508.584193     51.849525
PR04 -10757.389942    885.472444 -23082.531000    128.640542
PR05  -6155.909164  18114.695849 -16844.452106     88.089658
PR07   9817.752096  16158.366260  17136.487476     31.855830
PR08  10891.015689  -1095.521637  23097.475751    -63.677036
PR09   8186.195618  14047.757331  19691.571011     40.596113
PR11  22757.150164   4194.595593 -10736.881225     45.181000
PR12      0.000000      0.000000      0.000000     17.233841
PR13  -7034.530172 -13641.798320 -20397.015784    -18.557719
PR14 -21466.404266 -12464.415373  -5847.325005     74.590455
PR15 -22473.748894  -3954.883396  11417.093073     98.036349
PR17 -11111.257188  -4600.755214  22511.441322    503.454822
PR18 -20713.202649   7642.343163  12742.167606    107.962576
PR19 -20386.015490  15082.932936  -2737.596367   -178.973259
PR20  -6309.478739  14744.100726 -19807.217405    -65.332044
PR21  12156.977221   3571.191477 -22131.418272   -279.708005
PR22  21066.368186  -8220.619314 -11914.279496   -166.045863
PR24   5109.275954 -14993.936764  20011.022651     81.151635
EOF
